OBJECT C                
1 57582U 23117C   24350.14468058  .00013051  00000+0  58580-3 0  9999
2 57582  97.4687  60.1673 0010220  30.6228 329.5603 15.21265339 74645
